[{"OBJECT_NAME":"SHIYAN-23 (SY-23)","OBJECT_ID":"2024-089A","EPOCH":"2026-03-09T17:48:57.331872","MEAN_MOTION":14.86904923,"ECCENTRICITY":0.0004099,"INCLINATION":97.778,"RA_OF_ASC_NODE":72.5746,"ARG_OF_PERICENTER":142.8703,"MEAN_ANOMALY":217.2797,"EPHEMERIS_TYPE":0,"CLASSIFICATION_TYPE":"U","NORAD_CAT_ID":59728,"ELEMENT_SET_NO":999,"REV_AT_EPOCH":9906,"BSTAR":9.2631e-5,"MEAN_MOTION_DOT":7.74e-6,"MEAN_MOTION_DDOT":0},{"OBJECT_NAME":"CZ-2C DEB","OBJECT_ID":"2014-014E","EPOCH":"2026-03-09T21:08:21.809472","MEAN_MOTION":14.90058698,"ECCENTRICITY":0.00536612,"INCLINATION":98.2109,"RA_OF_ASC_NODE":181.9668,"ARG_OF_PERICENTER":42.9038,"MEAN_ANOMALY":317.6346,"EPHEMERIS_TYPE":0,"CLASSIFICATION_TYPE":"U","NORAD_CAT_ID":39628,"ELEMENT_SET_NO":999,"REV_AT_EPOCH":63514,"BSTAR":0.00154127,"MEAN_MOTION_DOT":0.00015258,"MEAN_MOTION_DDOT":0}]
